[Satellite]
VERSION=1.1
NAME=BEESAT
NICKNAME=BEESAT
TLE1=1 35933U 09051C   19316.76177314  .00000096  00000-0  32696-4 0  9999
TLE2=2 35933  98.6010 128.9885 0006911  88.5805 271.6183 14.56411906538293
STATUS=0
